137P/Shoemaker-Levy,e,4.8534,233.0505,141.0175,4.520544,0.1025458,0.57335443,75.9281,12/23.0/2020,2000,g 11.0,4.0
# From MPEC 2016-U66
138P/Shoemaker-Levy,e,10.0910,309.3319,95.5598,3.622743,0.1429380,0.53034740,85.7938,12/23.0/2020,2000,g 15.0,6.0
# From MPEC 2020-HN5
139P/Vaisala-Oterma,e,2.3336,242.1860,165.7520,4.523726,0.1024376,0.24652983,113.6587,12/23.0/2020,2000,g  9.5,4.0
# From MPEC 2015-E14
140P/Bowell-Skiff,e,3.8305,343.2978,172.8998,6.432881,0.0604082,0.69130522,118.7559,12/23.0/2020,2000,g 11.5,6.0
# From MPC105242
141P/Machholz,e,13.9453,241.8487,153.5443,3.055188,0.1845640,0.73555166,1.4008,12/23.0/2020,2000,g 12.0,12.0
# From MPC 95735
141P-H/Machholz,e,12.8431,246.0900,149.4500,3.008012,0.1889230,0.74682218,359.9270,08/24.0/2015,2000,g 18.5,4.0
# From MPC 71683
142P/Ge-Wang,e,12.2452,175.9466,173.9609,5.008492,0.0879313,0.49827750,347.6310,12/23.0/2020,2000,g  9.0,4.0
# From MPEC 2020-W26
143P/Kowal-Mrkos,e,4.6972,245.2516,320.4456,4.284357,0.1111413,0.41062987,106.9525,12/23.0/2020,2000,g 13.5,2.0
# From MPC104795
144P/Kushida,e,3.9551,243.5261,216.1259,3.815056,0.1322674,0.63730027,210.7331,12/23.0/2020,2000,g  8.5,8.0
# From MPC108598
145P/Shoemaker-Levy,e,11.2692,26.7880,10.2517,4.139389,0.1170307,0.54115146,141.4877,12/23.0/2020,2000,g 13.5,4.0
# From MPC100284
146P/Shoemaker-LINEAR,e,23.0887,53.4109,316.9249,4.032899,0.1216965,0.64677364,199.1399,12/23.0/2020,2000,g 15.0,4.0
# From MPC 75720
147P/Kushida-Muramatsu,e,2.3518,93.2406,350.7412,3.968699,0.1246613,0.23638254,225.5695,12/23.0/2020,2000,g 14.0,4.0
# From MPEC 2014-R70
148P/Anderson-LINEAR,e,3.6646,89.4123,7.4155,3.634974,0.1422172,0.54977634,283.6036,12/23.0/2020,2000,g  9.0,4.0
# From MPC 75720
149P/Mueller,e,29.9535,145.0052,44.3812,4.335187,0.1091924,0.39211729,73.4615,12/23.0/2020,2000,g  8.0,8.0
# From MPC 75720
150P/LONEOS,e,18.5070,272.3988,245.5586,3.879887,0.1289661,0.54672802,208.1308,12/23.0/2020,2000,g 13.5,4.0
# From MPEC 2015-Q71
151P/Helin,e,4.7277,143.1528,216.0470,5.764171,0.0712195,0.57322766,135.3999,12/23.0/2020,2000,g 10.0,6.0
# From MPC 79346
152P/Helin-Lawrence,e,9.8796,91.8647,163.8641,4.479640,0.1039536,0.30900972,319.8406,12/23.0/2020,2000,g 11.5,4.0
# From MPC 46101
153P/Ikeya-Zhang,e,27.7575,93.0947,35.1629,50.76679,0.0027248,0.98963163,0.0000,03/08.2905/2002,2000,g  9.0,4.0
# From MPC 87068
154P/Brewington,e,17.6315,343.0269,47.8395,4.803373,0.0936234,0.67538250,241.1518,12/23.0/2020,2000,g  2.5,12.0
# From MPEC 2020-SI8
155P/Shoemaker,e,6.3960,97.1958,14.6421,6.582167,0.0583648,0.72629742,23.5821,12/23.0/2020,2000,g 10.0,4.8
# From MPEC 2020-W26
156P/Russell-LINEAR,e,17.2629,35.3690,0.4290,3.460160,0.1531298,0.61475175,5.3787,12/23.0/2020,2000,g 15.5,2.0
# From MPC104795
157P/Tritton,e,12.5950,287.8782,154.9493,3.545734,0.1476199,0.56159730,267.9955,12/23.0/2020,2000,g 10.0,4.0
# From MPEC 2016-K18
158P/Kowal-LINEAR,e,7.9873,135.5823,176.7708,4.917622,0.0903798,0.02433127,342.9721,12/23.0/2020,2000,g  9.0,4.0
# From MPEC 2020-L06
159P/LONEOS,e,23.4627,54.9941,4.5988,5.855458,0.0695605,0.38157194,65.8086,12/23.0/2020,2000,g 10.0,4.0
# From MPEC 2019-TG9
160P/LINEAR,e,15.6161,333.3621,12.6838,3.773398,0.1344637,0.52625274,51.9903,12/23.0/2020,2000,g 15.5,2.0
# From MPC 75721
161P/Hartley-IRAS,e,95.7648,1.5073,46.9325,7.726199,0.0458939,0.83463557,260.5476,12/23.0/2020,2000,g  8.5,6.0
# From MPEC 2020-W26
162P/Siding Spring,e,27.5549,30.9111,357.1344,3.090487,0.1814110,0.58286988,2.7538,12/23.0/2020,2000,g 12.0,4.0
# From MPEC 2020-HN5
163P/NEAT,e,12.7080,102.0894,349.6396,3.768651,0.1347179,0.45182679,68.1556,12/23.0/2020,2000,g 14.5,4.0
# From MPC106349
164P/Christensen,e,16.2545,88.2987,325.8417,3.657440,0.1409088,0.53983565,131.9897,12/23.0/2020,2000,g 11.0,4.0
# From MPC 75721
165P/LINEAR,e,15.8976,0.8003,126.1207,17.89155,0.0130236,0.61478166,98.0123,12/23.0/2020,2000,g 11.5,2.0
# From MPC 75722
166P/NEAT,e,15.3652,64.4734,321.4439,13.82519,0.0191733,0.38279047,130.4088,12/23.0/2020,2000,g  5.5,4.0
# From MPC 75722
167P/CINEOS,e,19.1211,295.6546,344.3520,16.20130,0.0151140,0.27261035,108.3284,12/23.0/2020,2000,g  9.5,2.0
# From MPC102101
168P/Hergenrother,e,21.6164,355.4565,14.9955,3.582191,0.1453721,0.62079230,73.5254,12/23.0/2020,2000,g 15.5,4.0
# From MPEC 2020-L06
169P/NEAT,e,11.2974,176.0969,218.0568,2.601327,0.2349154,0.76808018,227.5531,12/23.0/2020,2000,g 16.0,2.0
# From MPC 89012
170P/Christensen,e,10.1250,142.9216,225.6269,4.198292,0.1145764,0.30361409,262.6771,12/23.0/2020,2000,g 12.0,4.0
# From MPC102102
171P/Spahr,e,21.9340,101.6960,347.1016,3.555928,0.1469855,0.50159457,104.2920,12/23.0/2020,2000,g 13.5,4.0
# From MPEC 2020-W26
172P/Yeung,e,11.2305,30.8956,209.4070,4.211838,0.1140241,0.20579269,157.4194,12/23.0/2020,2000,g 13.0,4.0
# From MPEC 2020-W26
173P/Mueller,e,16.4962,100.4024,29.2761,5.703038,0.0723677,0.26065271,333.9845,12/23.0/2020,2000,g  7.5,4.0
# From MPC 92985
174P/Echeclus,e,4.3431,173.2402,163.0048,10.71154,0.0281142,0.45729157,58.1906,12/23.0/2020,2000,g  9.4,2.0
# From MPC114608
175P/Hergenrother,e,6.0802,123.5202,56.4376,3.436333,0.1547253,0.43309864,69.3896,12/23.0/2020,2000,g 14.0,4.0
# From MPC 89015
176P/LINEAR,e,0.2348,345.8887,35.0905,3.193308,0.1727201,0.19303669,238.9702,12/23.0/2020,2000,g 15.1,2.0
# From MPEC 2020-L06
177P/Barnard,e,31.3094,272.3051,60.1940,24.40140,0.0081768,0.95523307,42.7401,12/23.0/2020,2000,g 15.0,4.0
# From MPEC 2020-SI8
178P/Hug-Bell,e,11.0894,102.8749,297.7901,3.631388,0.1424279,0.48193875,22.6992,12/23.0/2020,2000,g 13.5,4.0
# From MPC 75723
179P/Jedicke,e,19.8990,115.5257,296.6673,5.938688,0.0681033,0.30620420,324.4782,12/23.0/2020,2000,g  2.5,8.0
# From MPC100284
180P/NEAT,e,16.8673,84.5630,94.8480,3.862141,0.1298559,0.35314565,239.0024,12/23.0/2020,2000,g 11.0,4.0
# From MPC 89012
181P/Shoemaker-Levy,e,17.4867,35.4121,336.2482,3.871684,0.1293761,0.70047388,310.6041,12/23.0/2020,2000,g 11.5,4.0
# From MPEC 2014-J10
182P/LONEOS,e,16.2256,72.6118,53.9725,2.954551,0.1940737,0.66255890,261.9114,12/23.0/2020,2000,g 18.0,4.0
# From MPC110085
183P/Korlevic-Juric,e,18.7083,4.9540,165.0670,4.528423,0.1022783,0.13861791,114.3311,12/23.0/2020,2000,g 12.5,2.0
# From MPEC 2020-W26
184P/Lovas,e,4.5732,173.2553,186.4373,3.792731,0.1334369,0.55091143,7.7141,12/23.0/2020,2000,g 13.5,4.0
# From MPC109593
185P/Petriew,e,14.0021,214.0959,181.8775,3.099191,0.1806474,0.69907231,191.5761,12/23.0/2020,2000,g 15.0,4.0
# From MPEC 2020-W26
186P/Garradd,e,28.6996,326.6595,282.5714,4.995201,0.0882825,0.12331855,54.0104,12/23.0/2020,2000,g  7.5,4.0
# From MPEC 2020-SI8
187P/LINEAR,e,13.6346,109.9231,132.0112,4.571240,0.1008447,0.15220115,95.9372,12/23.0/2020,2000,g  9.0,4.0
# From MPC106349
188P/LINEAR-Mueller,e,10.5224,358.9583,26.5713,4.375189,0.1076983,0.41553284,151.2868,12/23.0/2020,2000,g 11.5,4.0
# From MPC106349
189P/NEAT,e,20.0721,281.7376,16.2698,2.946999,0.1948203,0.58875079,240.4301,12/23.0/2020,2000,g 19.0,4.0
# From MPEC 2020-K19
190P/Mueller,e,2.1743,335.5789,50.2738,4.234928,0.1130928,0.52109872,194.5453,12/23.0/2020,2000,g 13.0,4.0
# From MPEC 2020-W26
191P/McNaught,e,8.8428,98.2334,283.9942,3.634723,0.1422319,0.38587259,347.6153,12/23.0/2020,2000,g 13.0,4.0
# From MPC 75724
192P/Shoemaker-Levy,e,24.5465,51.6311,312.9345,6.477607,0.0597836,0.77303004,285.3496,12/23.0/2020,2000,g 15.0,4.0
# From MPC 92277
193P/LINEAR-NEAT,e,10.6870,335.1821,8.2018,3.577715,0.1456449,0.39420929,324.2366,12/23.0/2020,2000,g 14.0,4.0
# From MPC 98566
194P/LINEAR,e,11.2493,351.2915,130.9839,3.982794,0.1240002,0.57983297,217.9177,12/23.0/2020,2000,g 16.0,4.0
# From MPC 75724
195P/Hill,e,36.3380,243.1112,249.3876,6.500856,0.0594632,0.31325261,260.1474,12/23.0/2020,2000,g  8.5,4.0
# From MPC 92985
196P/Tichy,e,19.2960,24.1871,12.2695,3.799555,0.1330776,0.42854487,270.0311,12/23.0/2020,2000,g 13.5,4.0
# From MPC 94676
197P/LINEAR,e,25.5412,66.3903,188.7435,2.867546,0.2029731,0.62974230,214.9723,12/23.0/2020,2000,g 16.5,2.0
# From NK 1596
198P/ODAS,e,1.3387,358.2531,69.2223,3.599602,0.1443186,0.44321881,106.8306,12/23.0/2020,2000,g  9.0,4.0
# From MPC 75725
199P/Shoemaker,e,24.9336,92.3909,191.6234,5.895837,0.0688471,0.50607634,294.0642,12/23.0/2020,2000,g 10.0,4.0
# From MPC118098
200P/Larsen,e,12.1022,234.7996,134.0477,4.939495,0.0897801,0.33240938,46.0636,12/23.0/2020,2000,g  9.0,4.0
# From MPC 93588
201P/LONEOS,e,5.7385,19.7531,41.5264,3.354559,0.1604172,0.63707383,335.1903,12/23.0/2020,2000,g 14.0,4.0
# From MPC103849
202P/Scotti,e,2.0519,179.4211,277.0206,4.027629,0.1219354,0.27444416,208.4046,12/23.0/2020,2000,g 13.5,4.0
# From MPEC 2020-UR0
203P/Korlevic,e,2.9732,290.3480,154.8402,4.671409,0.0976185,0.31508886,28.6154,12/23.0/2020,2000,g 14.5,2.0
# From MPC 98566
204P/LINEAR-NEAT,e,6.6274,108.7926,355.4547,3.611751,0.1435911,0.48629298,260.4814,12/23.0/2020,2000,g 14.0,4.0
# From MPC 98566
205P/Giacobini,e,15.3037,179.6027,154.2014,3.542403,0.1478281,0.56796125,302.8718,12/23.0/2020,2000,g 13.0,4.0
# From MPC 75725
206P/Barnard-Boattini,e,33.6332,202.3471,189.4652,3.487566,0.1513284,0.55133550,349.1819,12/23.0/2020,2000,g 19.0,4.0
# From MPC 75725
207P/NEAT,e,10.1645,198.8732,272.5852,3.866473,0.1296378,0.76004164,212.7867,12/23.0/2020,2000,g 16.0,4.0
# From MPEC 2020-W26
208P/McMillan,e,4.4099,36.3543,310.4177,4.046363,0.1210896,0.37358549,197.8094,12/23.0/2020,2000,g 12.5,4.0
# From MPC 90771
209P/LINEAR,e,21.2574,62.7697,152.4767,2.960103,0.1935280,0.67315057,108.2413,12/23.0/2020,2000,g 17.0,2.0
# From MPC105242
210P/Christensen,e,10.2620,93.8339,345.9044,3.165066,0.1750370,0.83319259,45.3494,12/23.0/2020,2000,g 13.5,4.0
# From MPC 96868
211P/Hill,e,18.9220,117.1396,4.1856,3.547290,0.1475227,0.34306135,264.0145,12/23.0/2020,2000,g 12.5,4.0
# From MPC104795
212P/NEAT,e,22.3991,98.5026,14.0994,3.882217,0.1288500,0.58941393,202.7482,12/23.0/2020,2000,g 17.0,2.0
# From MPC114608
213P/Van Ness,e,10.3828,311.3001,5.6220,3.348074,0.1608835,0.40817867,190.5963,12/23.0/2020,2000,g 10.5,4.0
# From MPC 92986
